EXCITE                  
1 43819U 18099BP  26068.69809098  .00002813  00000+0  19631-3 0  9999
2 43819  97.4107 111.3606 0017626 337.4818  22.5634 15.06036758396774
STARLINK-4026           
1 52600U 22052C   26068.85820795 -.00000436  00000+0 -92879-5 0  9994
2 52600  53.2155 278.3676 0001339  87.3603 272.7542 15.08837616211680
