[{"OBJECT_NAME":"EXCITE","OBJECT_ID":"2018-099BP","EPOCH":"2026-03-09T16:45:15.060672","MEAN_MOTION":15.06036758,"ECCENTRICITY":0.0017626,"INCLINATION":97.4107,"RA_OF_ASC_NODE":111.3606,"ARG_OF_PERICENTER":337.4818,"MEAN_ANOMALY":22.5634,"EPHEMERIS_TYPE":0,"CLASSIFICATION_TYPE":"U","NORAD_CAT_ID":43819,"ELEMENT_SET_NO":999,"REV_AT_EPOCH":39677,"BSTAR":0.00019631388,"MEAN_MOTION_DOT":2.813e-5,"MEAN_MOTION_DDOT":0},{"OBJECT_NAME":"STARLINK-4026","OBJECT_ID":"2022-052C","EPOCH":"2026-03-09T20:35:49.167744","MEAN_MOTION":15.08837616,"ECCENTRICITY":0.00013388,"INCLINATION":53.2155,"RA_OF_ASC_NODE":278.3676,"ARG_OF_PERICENTER":87.3603,"MEAN_ANOMALY":272.7542,"EPHEMERIS_TYPE":0,"CLASSIFICATION_TYPE":"U","NORAD_CAT_ID":52600,"ELEMENT_SET_NO":999,"REV_AT_EPOCH":21168,"BSTAR":-9.287864e-6,"MEAN_MOTION_DOT":-4.36e-6,"MEAN_MOTION_DDOT":0}]
